CCSDS_OMM_VERS = 2.0
CREATION_DATE  = 
ORIGINATOR     = 

OBJECT_NAME    = COSMOS 1743
OBJECT_ID      = 1986-034A
CENTER_NAME    = EARTH
REF_FRAME      = TEME
TIME_SYSTEM    = UTC
MEAN_ELEMENT_THEORY = SGP/SGP4

EPOCH          = 2025-11-04T04:45:17.021952
MEAN_MOTION    = 15.49484843
ECCENTRICITY   = .00085545
INCLINATION    = 82.5389
RA_OF_ASC_NODE = 204.5361
ARG_OF_PERICENTER = 43.3503
MEAN_ANOMALY   = 316.8419

EPHEMERIS_TYPE = 0
CLASSIFICATION_TYPE = U
NORAD_CAT_ID   = 16719
ELEMENT_SET_NO = 999
REV_AT_EPOCH   = 16076
BSTAR          = .57399537E-3
MEAN_MOTION_DOT = .31736E-3
MEAN_MOTION_DDOT = 0

CCSDS_OMM_VERS = 2.0
CREATION_DATE  = 
ORIGINATOR     = 

OBJECT_NAME    = SL-14 R/B
OBJECT_ID      = 1986-046B
CENTER_NAME    = EARTH
REF_FRAME      = TEME
TIME_SYSTEM    = UTC
MEAN_ELEMENT_THEORY = SGP/SGP4

EPOCH          = 2025-11-04T04:24:55.461600
MEAN_MOTION    = 14.85426153
ECCENTRICITY   = .00216715
INCLINATION    = 82.4841
RA_OF_ASC_NODE = 198.7205
ARG_OF_PERICENTER = 284.1725
MEAN_ANOMALY   = 75.7083

EPHEMERIS_TYPE = 0
CLASSIFICATION_TYPE = U
NORAD_CAT_ID   = 16792
ELEMENT_SET_NO = 999
REV_AT_EPOCH   = 10777
BSTAR          = .6742906E-4
MEAN_MOTION_DOT = .607E-5
MEAN_MOTION_DDOT = 0

CCSDS_OMM_VERS = 2.0
CREATION_DATE  = 
ORIGINATOR     = 

OBJECT_NAME    = SL-14 R/B
OBJECT_ID      = 1986-055B
CENTER_NAME    = EARTH
REF_FRAME      = TEME
TIME_SYSTEM    = UTC
MEAN_ELEMENT_THEORY = SGP/SGP4

EPOCH          = 2025-11-04T07:52:38.423136
MEAN_MOTION    = 14.85464412
ECCENTRICITY   = .00198938
INCLINATION    = 82.5206
RA_OF_ASC_NODE = 244.4605
ARG_OF_PERICENTER = 31.1801
MEAN_ANOMALY   = 84.0142

EPHEMERIS_TYPE = 0
CLASSIFICATION_TYPE = U
NORAD_CAT_ID   = 16882
ELEMENT_SET_NO = 999
REV_AT_EPOCH   = 10075
BSTAR          = .8091122E-4
MEAN_MOTION_DOT = .724E-5
MEAN_MOTION_DDOT = 0

CCSDS_OMM_VERS = 2.0
CREATION_DATE  = 
ORIGINATOR     = 

OBJECT_NAME    = AJISAI (EGS)
OBJECT_ID      = 1986-061A
CENTER_NAME    = EARTH
REF_FRAME      = TEME
TIME_SYSTEM    = UTC
MEAN_ELEMENT_THEORY = SGP/SGP4

EPOCH          = 2025-11-04T06:32:45.817728
MEAN_MOTION    = 12.44514133
ECCENTRICITY   = .00111493
INCLINATION    = 50.0067
RA_OF_ASC_NODE = 119.0003
ARG_OF_PERICENTER = 328.8509
MEAN_ANOMALY   = 86.0544

EPHEMERIS_TYPE = 0
CLASSIFICATION_TYPE = U
NORAD_CAT_ID   = 16908
ELEMENT_SET_NO = 999
REV_AT_EPOCH   = 45238
BSTAR          = .57339196E-4
MEAN_MOTION_DOT = -.89E-6
MEAN_MOTION_DDOT = 0

CCSDS_OMM_VERS = 2.0
CREATION_DATE  = 
ORIGINATOR     = 

OBJECT_NAME    = COSMOS 1812
OBJECT_ID      = 1987-003A
CENTER_NAME    = EARTH
REF_FRAME      = TEME
TIME_SYSTEM    = UTC
MEAN_ELEMENT_THEORY = SGP/SGP4

EPOCH          = 2025-11-04T01:51:09.435456
MEAN_MOTION    = 15.67877251
ECCENTRICITY   = .00037316
INCLINATION    = 82.4895
RA_OF_ASC_NODE = 333.6184
ARG_OF_PERICENTER = 163.3699
MEAN_ANOMALY   = 196.7685

EPHEMERIS_TYPE = 0
CLASSIFICATION_TYPE = U
NORAD_CAT_ID   = 17295
ELEMENT_SET_NO = 999
REV_AT_EPOCH   = 12458
BSTAR          = .61954723E-3
MEAN_MOTION_DOT = .68622E-3
MEAN_MOTION_DDOT = 0

CCSDS_OMM_VERS = 2.0
CREATION_DATE  = 
ORIGINATOR     = 

OBJECT_NAME    = SL-14 R/B
OBJECT_ID      = 1987-024B
CENTER_NAME    = EARTH
REF_FRAME      = TEME
TIME_SYSTEM    = UTC
MEAN_ELEMENT_THEORY = SGP/SGP4

EPOCH          = 2025-11-04T04:41:38.653728
MEAN_MOTION    = 14.85964658
ECCENTRICITY   = .00173369
INCLINATION    = 82.5305
RA_OF_ASC_NODE = 210.6557
ARG_OF_PERICENTER = 320.6111
MEAN_ANOMALY   = 39.3843

EPHEMERIS_TYPE = 0
CLASSIFICATION_TYPE = U
NORAD_CAT_ID   = 17567
ELEMENT_SET_NO = 999
REV_AT_EPOCH   = 6949
BSTAR          = .70848404E-4
MEAN_MOTION_DOT = .644E-5
MEAN_MOTION_DDOT = 0

CCSDS_OMM_VERS = 2.0
CREATION_DATE  = 
ORIGINATOR     = 

OBJECT_NAME    = COSMOS 1833
OBJECT_ID      = 1987-027A
CENTER_NAME    = EARTH
REF_FRAME      = TEME
TIME_SYSTEM    = UTC
MEAN_ELEMENT_THEORY = SGP/SGP4

EPOCH          = 2025-11-04T04:58:35.456448
MEAN_MOTION    = 14.13023199
ECCENTRICITY   = .002078
INCLINATION    = 70.9158
RA_OF_ASC_NODE = 229.7761
ARG_OF_PERICENTER = 26.2835
MEAN_ANOMALY   = 333.9336

EPHEMERIS_TYPE = 0
CLASSIFICATION_TYPE = U
NORAD_CAT_ID   = 17589
ELEMENT_SET_NO = 999
REV_AT_EPOCH   = 99258
BSTAR          = -.13311264E-3
MEAN_MOTION_DOT = -.297E-5
MEAN_MOTION_DDOT = 0

CCSDS_OMM_VERS = 2.0
CREATION_DATE  = 
ORIGINATOR     = 

OBJECT_NAME    = SL-16 R/B
OBJECT_ID      = 1987-027B
CENTER_NAME    = EARTH
REF_FRAME      = TEME
TIME_SYSTEM    = UTC
MEAN_ELEMENT_THEORY = SGP/SGP4

EPOCH          = 2025-11-04T01:13:36.891552
MEAN_MOTION    = 14.17143478
ECCENTRICITY   = .00068538
INCLINATION    = 71.0016
RA_OF_ASC_NODE = 181.2411
ARG_OF_PERICENTER = 300.3322
MEAN_ANOMALY   = 59.7124

EPHEMERIS_TYPE = 0
CLASSIFICATION_TYPE = U
NORAD_CAT_ID   = 17590
ELEMENT_SET_NO = 999
REV_AT_EPOCH   = 99758
BSTAR          = .15358609E-3
MEAN_MOTION_DOT = .262E-5
MEAN_MOTION_DDOT = 0

CCSDS_OMM_VERS = 2.0
CREATION_DATE  = 
ORIGINATOR     = 

OBJECT_NAME    = SL-14 R/B
OBJECT_ID      = 1987-038B
CENTER_NAME    = EARTH
REF_FRAME      = TEME
TIME_SYSTEM    = UTC
MEAN_ELEMENT_THEORY = SGP/SGP4

EPOCH          = 2025-11-03T14:05:24.406656
MEAN_MOTION    = 14.85198645
ECCENTRICITY   = .00184067
INCLINATION    = 82.5027
RA_OF_ASC_NODE = 55.5683
ARG_OF_PERICENTER = 217.9830
MEAN_ANOMALY   = 142.0089

EPHEMERIS_TYPE = 0
CLASSIFICATION_TYPE = U
NORAD_CAT_ID   = 17912
ELEMENT_SET_NO = 999
REV_AT_EPOCH   = 6051
BSTAR          = .8023174E-4
MEAN_MOTION_DOT = .713E-5
MEAN_MOTION_DDOT = 0

CCSDS_OMM_VERS = 2.0
CREATION_DATE  = 
ORIGINATOR     = 

OBJECT_NAME    = COSMOS 1844
OBJECT_ID      = 1987-041A
CENTER_NAME    = EARTH
REF_FRAME      = TEME
TIME_SYSTEM    = UTC
MEAN_ELEMENT_THEORY = SGP/SGP4

EPOCH          = 2025-11-04T07:18:36.124992
MEAN_MOTION    = 14.14512146
ECCENTRICITY   = .00322256
INCLINATION    = 70.8975
RA_OF_ASC_NODE = 298.6371
ARG_OF_PERICENTER = 214.0695
MEAN_ANOMALY   = 145.8359

EPHEMERIS_TYPE = 0
CLASSIFICATION_TYPE = U
NORAD_CAT_ID   = 17973
ELEMENT_SET_NO = 999
REV_AT_EPOCH   = 98585
BSTAR          = .23810527E-3
MEAN_MOTION_DOT = .411E-5
MEAN_MOTION_DDOT = 0

CCSDS_OMM_VERS = 2.0
CREATION_DATE  = 
ORIGINATOR     = 

OBJECT_NAME    = SL-14 R/B
OBJECT_ID      = 1987-055B
CENTER_NAME    = EARTH
REF_FRAME      = TEME
TIME_SYSTEM    = UTC
MEAN_ELEMENT_THEORY = SGP/SGP4

EPOCH          = 2025-11-04T04:36:39.687264
MEAN_MOTION    = 14.85456480
ECCENTRICITY   = .00221156
INCLINATION    = 82.4965
RA_OF_ASC_NODE = 107.3158
ARG_OF_PERICENTER = 69.9694
MEAN_ANOMALY   = 290.3901

EPHEMERIS_TYPE = 0
CLASSIFICATION_TYPE = U
NORAD_CAT_ID   = 18153
ELEMENT_SET_NO = 999
REV_AT_EPOCH   = 5130
BSTAR          = .6956369E-4
MEAN_MOTION_DOT = .627E-5
MEAN_MOTION_DDOT = 0

CCSDS_OMM_VERS = 2.0
CREATION_DATE  = 
ORIGINATOR     = 

OBJECT_NAME    = COSMOS 1867
OBJECT_ID      = 1987-060A
CENTER_NAME    = EARTH
REF_FRAME      = TEME
TIME_SYSTEM    = UTC
MEAN_ELEMENT_THEORY = SGP/SGP4

EPOCH          = 2025-11-04T04:16:56.676864
MEAN_MOTION    = 14.31476156
ECCENTRICITY   = .00137329
INCLINATION    = 65.0100
RA_OF_ASC_NODE = 298.1889
ARG_OF_PERICENTER = 267.2665
MEAN_ANOMALY   = 92.6848

EPHEMERIS_TYPE = 0
CLASSIFICATION_TYPE = U
NORAD_CAT_ID   = 18187
ELEMENT_SET_NO = 999
REV_AT_EPOCH   = 197
BSTAR          = .39636863E-4
MEAN_MOTION_DOT = .5E-7
MEAN_MOTION_DDOT = 0

