COSMOS 1743             
1 16719U 86034A   25308.19811368  .00031736  00000+0  57400-3 0  9998
2 16719  82.5389 204.5361 0008554  43.3503 316.8419 15.49484843160764
SL-14 R/B               
1 16792U 86046B   25308.18397525  .00000607  00000+0  67429-4 0  9991
2 16792  82.4841 198.7205 0021671 284.1725  75.7083 14.85426153107773
SL-14 R/B               
1 16882U 86055B   25308.32822249  .00000724  00000+0  80911-4 0  9994
2 16882  82.5206 244.4605 0019893  31.1801  84.0142 14.85464412100750
AJISAI (EGS)            
1 16908U 86061A   25308.27275252 -.00000089  00000+0  57339-4 0  9993
2 16908  50.0067 119.0003 0011149 328.8509  86.0544 12.44514133452386
COSMOS 1812             
1 17295U 87003A   25308.07719254  .00068622  00000+0  61955-3 0  9997
2 17295  82.4895 333.6184 0003731 163.3699 196.7685 15.67877251124582
SL-14 R/B               
1 17567U 87024B   25308.19558627  .00000644  00000+0  70848-4 0  9992
2 17567  82.5305 210.6557 0017336 320.6111  39.3843 14.85964658 69495
COSMOS 1833             
1 17589U 87027A   25308.20735482 -.00000297  00000+0 -13311-3 0  9994
2 17589  70.9158 229.7761 0020780  26.2835 333.9336 14.13023199992585
SL-16 R/B               
1 17590U 87027B   25308.05112143  .00000262  00000+0  15359-3 0  9996
2 17590  71.0016 181.2411 0006853 300.3322  59.7124 14.17143478997588
SL-14 R/B               
1 17912U 87038B   25307.58708804  .00000713  00000+0  80232-4 0  9992
2 17912  82.5027  55.5683 0018406 217.9830 142.0089 14.85198645 60514
COSMOS 1844             
1 17973U 87041A   25308.30458478  .00000411  00000+0  23811-3 0  9997
2 17973  70.8975 298.6371 0032225 214.0695 145.8359 14.14512146985851
SL-14 R/B               
1 18153U 87055B   25308.19212601  .00000627  00000+0  69564-4 0  9991
2 18153  82.4965 107.3158 0022115  69.9694 290.3901 14.85456480 51301
COSMOS 1867             
1 18187U 87060A   25308.17843376  .00000005  00000+0  39637-4 0  9999
2 18187  65.0100 298.1889 0013732 267.2665  92.6848 14.31476156  1976
